{
  "type": "FeatureCollection",
  "features": [
    {
      "type": "Feature",
      "properties": {
        "norad_id": 40362,
        "name": "YAOGAN-26",
        "group": "resource",
        "lat": 61.98899240387797,
        "lon": 178.65340448144218,
        "alt_km": 441.923344685295,
        "timestamp": "2025-12-10T09:57:44.361543+00:00",
        "meta_object_name": "YAOGAN-26",
        "meta_object_id": "2014-088A",
        "meta_epoch": "2025-12-10T04:46:29.420832",
        "meta_mean_motion": 15.39163306,
        "meta_eccentricity": 0.0006607,
        "meta_inclination": 97.0649,
        "meta_ra_of_asc_node": 344.9627,
        "meta_arg_of_pericenter": 35.8838,
        "meta_mean_anomaly": 324.2851,
        "meta_ephemeris_type": 0,
        "meta_classification_type": "U",
        "meta_norad_cat_id": 40362,
        "meta_element_set_no": 999,
        "meta_rev_at_epoch": 60855,
        "meta_bstar": 0.00087543,
        "meta_mean_motion_dot": 0.00034036,
        "meta_mean_motion_ddot": 0,
        "tle_line1": "1 40362U 14088A   25344.19895163  .00034036  00000+0  87543-3 0  9991",
        "tle_line2": "2 40362  97.0649 344.9627 0006607  35.8838 324.2851 15.39163306608557"
      },
      "geometry": {
        "type": "Point",
        "coordinates": [
          178.65340448144218,
          61.98899240387797
        ]
      }
    },
    {
      "type": "Feature",
      "properties": {
        "norad_id": 40376,
        "name": "SMAP",
        "group": "resource",
        "lat": -77.28827108828936,
        "lon": 28.491877010999065,
        "alt_km": 690.5705643405072,
        "timestamp": "2025-12-10T09:57:44.361553+00:00",
        "meta_object_name": "SMAP",
        "meta_object_id": "2015-003A",
        "meta_epoch": "2025-12-10T03:45:50.956992",
        "meta_mean_motion": 14.6333959,
        "meta_eccentricity": 0.0001202,
        "meta_inclination": 98.1291,
        "meta_ra_of_asc_node": 348.9179,
        "meta_arg_of_pericenter": 88.764,
        "meta_mean_anomaly": 271.37,
        "meta_ephemeris_type": 0,
        "meta_classification_type": "U",
        "meta_norad_cat_id": 40376,
        "meta_element_set_no": 999,
        "meta_rev_at_epoch": 57997,
        "meta_bstar": 0.0001804,
        "meta_mean_motion_dot": 8.85e-06,
        "meta_mean_motion_ddot": 0,
        "tle_line1": "1 40376U 15003A   25344.15683978  .00000885  00000+0  18040-3 0  9990",
        "tle_line2": "2 40376  98.1291 348.9179 0001202  88.7640 271.3700 14.63339590579971"
      },
      "geometry": {
        "type": "Point",
        "coordinates": [
          28.491877010999065,
          -77.28827108828936
        ]
      }
    },
    {
      "type": "Feature",
      "properties": {
        "norad_id": 40536,
        "name": "KOMPSAT-3A",
        "group": "resource",
        "lat": 18.282597510785543,
        "lon": -43.92195859488573,
        "alt_km": 436.57309568323944,
        "timestamp": "2025-12-10T09:57:44.361564+00:00",
        "meta_object_name": "KOMPSAT-3A",
        "meta_object_id": "2015-014A",
        "meta_epoch": "2025-12-10T03:39:36.465696",
        "meta_mean_motion": 15.43793154,
        "meta_eccentricity": 0.0004626,
        "meta_inclination": 97.6792,
        "meta_ra_of_asc_node": 318.356,
        "meta_arg_of_pericenter": 132.6026,
        "meta_mean_anomaly": 227.5612,
        "meta_ephemeris_type": 0,
        "meta_classification_type": "U",
        "meta_norad_cat_id": 40536,
        "meta_element_set_no": 999,
        "meta_rev_at_epoch": 59255,
        "meta_bstar": 0.00058189,
        "meta_mean_motion_dot": 0.00026308,
        "meta_mean_motion_ddot": 0,
        "tle_line1": "1 40536U 15014A   25344.15250539  .00026308  00000+0  58189-3 0  9999",
        "tle_line2": "2 40536  97.6792 318.3560 0004626 132.6026 227.5612 15.43793154592557"
      },
      "geometry": {
        "type": "Point",
        "coordinates": [
          -43.92195859488573,
          18.282597510785543
        ]
      }
    },
    {
      "type": "Feature",
      "properties": {
        "norad_id": 40697,
        "name": "SENTINEL-2A",
        "group": "resource",
        "lat": 58.797388694566905,
        "lon": 42.56559839284034,
        "alt_km": 782.6130385811066,
        "timestamp": "2025-12-10T09:57:44.361574+00:00",
        "meta_object_name": "SENTINEL-2A",
        "meta_object_id": "2015-028A",
        "meta_epoch": "2025-12-10T04:38:54.729600",
        "meta_mean_motion": 14.30825658,
        "meta_eccentricity": 0.0001043,
        "meta_inclination": 98.5691,
        "meta_ra_of_asc_node": 56.7624,
        "meta_arg_of_pericenter": 90.2871,
        "meta_mean_anomaly": 269.8431,
        "meta_ephemeris_type": 0,
        "meta_classification_type": "U",
        "meta_norad_cat_id": 40697,
        "meta_element_set_no": 999,
        "meta_rev_at_epoch": 54670,
        "meta_bstar": 8.8693e-05,
        "meta_mean_motion_dot": 1.89e-06,
        "meta_mean_motion_ddot": 0,
        "tle_line1": "1 40697U 15028A   25344.19368900  .00000189  00000+0  88693-4 0  9991",
        "tle_line2": "2 40697  98.5691  56.7624 0001043  90.2871 269.8431 14.30825658546708"
      },
      "geometry": {
        "type": "Point",
        "coordinates": [
          42.56559839284034,
          58.797388694566905
        ]
      }
    },
    {
      "type": "Feature",
      "properties": {
        "norad_id": 40701,
        "name": "GAOFEN-8",
        "group": "resource",
        "lat": -71.3125665630863,
        "lon": -174.00620514960818,
        "alt_km": 464.2766955034376,
        "timestamp": "2025-12-10T09:57:44.361584+00:00",
        "meta_object_name": "GAOFEN-8",
        "meta_object_id": "2015-030A",
        "meta_epoch": "2025-12-10T04:02:07.041120",
        "meta_mean_motion": 15.38397537,
        "meta_eccentricity": 0.0011524,
        "meta_inclination": 97.6915,
        "meta_ra_of_asc_node": 162.1835,
        "meta_arg_of_pericenter": 146.7005,
        "meta_mean_anomaly": 213.4967,
        "meta_ephemeris_type": 0,
        "meta_classification_type": "U",
        "meta_norad_cat_id": 40701,
        "meta_element_set_no": 999,
        "meta_rev_at_epoch": 58231,
        "meta_bstar": 0.00032318,
        "meta_mean_motion_dot": 0.0001218,
        "meta_mean_motion_ddot": 0,
        "tle_line1": "1 40701U 15030A   25344.16813705  .00012180  00000+0  32318-3 0  9991",
        "tle_line2": "2 40701  97.6915 162.1835 0011524 146.7005 213.4967 15.38397537582315"
      },
      "geometry": {
        "type": "Point",
        "coordinates": [
          -174.00620514960818,
          -71.3125665630863
        ]
      }
    },
    {
      "type": "Feature",
      "properties": {
        "norad_id": 40718,
        "name": "CARBONITE 1 (CBNT-1)",
        "group": "resource",
        "lat": -35.273916800525136,
        "lon": 171.01051925619154,
        "alt_km": 634.1243089526133,
        "timestamp": "2025-12-10T09:57:44.361594+00:00",
        "meta_object_name": "CARBONITE 1 (CBNT-1)",
        "meta_object_id": "2015-032D",
        "meta_epoch": "2025-12-10T03:38:40.430112",
        "meta_mean_motion": 14.82721646,
        "meta_eccentricity": 0.0014165,
        "meta_inclination": 97.6406,
        "meta_ra_of_asc_node": 165.3102,
        "meta_arg_of_pericenter": 189.7634,
        "meta_mean_anomaly": 170.3307,
        "meta_ephemeris_type": 0,
        "meta_classification_type": "U",
        "meta_norad_cat_id": 40718,
        "meta_element_set_no": 999,
        "meta_rev_at_epoch": 56132,
        "meta_bstar": 0.00020136,
        "meta_mean_motion_dot": 1.578e-05,
        "meta_mean_motion_ddot": 0,
        "tle_line1": "1 40718U 15032D   25344.15185683  .00001578  00000+0  20136-3 0  9991",
        "tle_line2": "2 40718  97.6406 165.3102 0014165 189.7634 170.3307 14.82721646561326"
      },
      "geometry": {
        "type": "Point",
        "coordinates": [
          171.01051925619154,
          -35.273916800525136
        ]
      }
    },
    {
      "type": "Feature",
      "properties": {
        "norad_id": 40878,
        "name": "YAOGAN-27",
        "group": "resource",
        "lat": -24.409957560117906,
        "lon": -21.220519316023108,
        "alt_km": 1200.8639885185985,
        "timestamp": "2025-12-10T09:57:44.361604+00:00",
        "meta_object_name": "YAOGAN-27",
        "meta_object_id": "2015-040A",
        "meta_epoch": "2025-12-10T04:36:52.202304",
        "meta_mean_motion": 13.16060196,
        "meta_eccentricity": 0.0007641,
        "meta_inclination": 100.1008,
        "meta_ra_of_asc_node": 333.9269,
        "meta_arg_of_pericenter": 293.1704,
        "meta_mean_anomaly": 66.8605,
        "meta_ephemeris_type": 0,
        "meta_classification_type": "U",
        "meta_norad_cat_id": 40878,
        "meta_element_set_no": 999,
        "meta_rev_at_epoch": 49280,
        "meta_bstar": 0.00082845,
        "meta_mean_motion_dot": 2.72e-06,
        "meta_mean_motion_ddot": 0,
        "tle_line1": "1 40878U 15040A   25344.19227086  .00000272  00000+0  82845-3 0  9990",
        "tle_line2": "2 40878 100.1008 333.9269 0007641 293.1704  66.8605 13.16060196492805"
      },
      "geometry": {
        "type": "Point",
        "coordinates": [
          -21.220519316023108,
          -24.409957560117906
        ]
      }
    }
  ]
}